STARLINK-36388
1 68037U 26040Y   26090.83335647 -.01915588  00000+0 -18189-1 0  9998
2 68037  97.2858  40.4013 0001345  99.7041 224.6949 15.69770316  5949
